BEESAT-4                
1 41619U 16040W   21060.60588772  .00002327  00000-0  96024-4 0  9993
2 41619  97.2846 119.6702 0010566   2.2083 357.9200 15.24984757248572
CAS-2T & KS-1Q          
1 41847U 16066G   21060.42922748  .00000164  00000-0  34860-4 0  9996
2 41847  98.6172 119.0379 0365500 182.6134 177.3153 14.38152177226357
NAYIF-1 (EO-88)         
1 42017U 17008BX  21060.63111534  .00002680  00000-0  10201-3 0  9996
2 42017  97.3283 130.1390 0007519 124.0512 236.1442 15.27583273224791
ZHUHAI-1 02 (CAS-4B)    
1 42759U 17034B   21060.87880493  .00000579  00000-0  48305-4 0  9993
2 42759  43.0176  52.4377 0009696 219.4896 217.2863 15.10091176204889
ZHUHAI-1 01 (CAS-4A)    
1 42761U 17034D   21060.87572578  .00000595  00000-0  49142-4 0  9996
2 42761  43.0183  51.5868 0010422 219.3866 217.6680 15.10172507204889
MAX VALIER SAT          
1 42778U 17036P   21060.58374447  .00001468  00000-0  64769-4 0  9991
2 42778  97.2709 112.6650 0011774 188.6629 171.4407 15.23255931204865
RADFXSAT (FOX-1B)       
1 43017U 17073E   21060.59250332  .00001071  00000-0  88712-4 0  9990
2 43017  97.7150 328.8246 0254306 292.3859  65.0588 14.79354616177178
FOX-1D (AO-92)          
1 43137U 18004AC  21060.66237259  .00001827  00000-0  76416-4 0  9996
2 43137  97.4172 135.7738 0007776 223.1737 136.8892 15.24859020174236
DIWATA-2B               
1 43678U 18084H   21060.86156967  .00000283  00000-0  33792-4 0  9997
2 43678  97.9070 185.6981 0011234  51.5698 308.6482 14.91715111127399
ES'HAIL 2               
1 43700U 18090A   21060.68188619  .00000136  00000-0  00000-0 0  9998
2 43700   0.0115 157.2353 0002321 219.1543  54.5490  1.00270843  8282
FOX-1CLIFF (AO-95)      
1 43770U 18099N   21060.64340194  .00000071  00000-0  11641-4 0  9993
2 43770  97.6766 133.1623 0015719  61.3738 298.9062 14.95211510122341
ITASAT 1                
1 43786U 18099AE  21060.45048653  .00000020  00000-0  69655-5 0  9997
2 43786  97.6782 133.5761 0016246  55.5897 304.6857 14.95519301122346
JY1SAT (JO-97)          
1 43803U 18099AX  21060.43132778  .00000263  00000-0  28692-4 0  9991
2 43803  97.6748 133.3237 0016358  55.8882 304.3888 14.95744971122349
UWE-4                   
1 43880U 18111E   21060.55422644  .00001002  00000-0  92568-4 0  9993
2 43880  97.6936 330.0977 0013843 104.0236 256.2525 14.96741334118941
PSAT2 (NO-104)          
1 44354U 19036R   21060.51997756  .00019821  00000-0  27304-3 0  9997
2 44354  28.5291 125.0249 0338979 188.3525 171.1314 15.09960348 92625
BRICSAT2 (NO-103)       
1 44355U 19036S   21060.45351283  .00037677  00000-0  45567-3 0  9990
2 44355  28.5287  95.9181 0292688 235.7019 121.5541 15.21931714 92914
JAISAT-1                
1 44419U 19038F   21060.81441970  .00001674  00000-0  97032-4 0  9999
2 44419  97.5753  26.0274 0020351 327.5136  32.4841 15.13430231 91510
DUCHIFAT-3              
1 44854U 19089C   21060.91455429  .00000834  00000-0  73332-4 0  9997
2 44854  36.9685  16.5301 0009035 342.3720  17.6722 14.99351446 66955
RS-44 & BREEZE-KM R/B   
1 44909U 19096E   21060.57893219  .00000021  00000-0  42555-4 0  9992
2 44909  82.5245 184.4762 0217008 345.6086  13.8895 12.79708541 55060
ORBITAL FACTORY 2 (OF-2)
1 45113U 19071C   21060.74927893  .00003442  00000-0  11112-3 0  9992
2 45113  51.6419 199.4077 0011773 263.8970  96.0671 15.34900825 60623
HUSKYSAT-1 (HO-107)     
1 45119U 19071J   21060.76472979  .00003330  00000-0  10756-3 0  9999
2 45119  51.6419 198.7588 0011164 260.3796  99.5925 15.34998469 60621
BY70-2                  
1 45857U 20042B   21060.92044399  .00001415  00000-0  20930-3 0  9994
2 45857  97.9920 137.7805 0011418 191.5423 168.5502 14.76726664 35675
SALSAT                  
1 46495U 20068K   21060.90523163  .00001301  00000-0  10005-3 0  9996
2 46495  97.6842 359.1007 0017786  75.0617 285.2577 15.03358375 23175
BY70-3                  
1 46839U 20079N   21060.83677946  .00003661  00000-0  11752-3 0  9992
2 46839  97.2520 136.8370 0006212 220.7873 248.3582 15.32914205 17715
RADFXSAT-2 (AO-109)     
1 47311U 21002C   21060.71467123  .00001356  00000-0  71966-4 0  9999
2 47311  60.6857 334.3993 0018587 333.1227  26.8894 15.21294293  6476
UVSQ-SAT                
1 47438U 21006AB  21060.44928558  .00001008  00000-0  60882-4 0  9996
2 47438  97.5019 123.5457 0014413 109.3387 250.9404 15.12882142  5722
